ONEWEB-0319             
1 49105U 21075AG  25123.95339008  .00000084  00000+0  18291-3 0  9999
2 49105  87.9037  87.3742 0002514  86.0198 274.1221 13.17650352179717
ONEWEB-0323             
1 49106U 21075AH  25123.87582502 -.00000343  00000+0 -98845-3 0  9993
2 49106  87.8864  72.0749 0002735  84.0727 276.0714 13.12440483180867
ONEWEB-0329             
1 49107U 21075AJ  25124.18964144  .00000130  00000+0  30161-3 0  9994
2 49107  87.9037  87.3318 0002254  87.9830 272.1560 13.17648171180714
ONEWEB-0330             
1 49108U 21075AK  25123.88757725  .00000067  00000+0  14041-3 0  9994
2 49108  87.9039  87.3943 0002106  89.0564 271.0809 13.17649848179729
ONEWEB-0292             
1 49186U 21083A   25123.78716839 -.00000244  00000+0 -70224-3 0  9993
2 49186  87.8997  41.6236 0002079  77.3200 282.8162 13.13470532177189
ONEWEB-0303             
1 49187U 21083B   25123.87536487  .00000040  00000+0  69536-4 0  9990
2 49187  87.9145  56.8055 0002189  79.3722 280.7657 13.18688316176031
ONEWEB-0306             
1 49188U 21083C   25124.09350826  .00000025  00000+0  31154-4 0  9995
2 49188  87.9146  56.7466 0001826  83.1235 277.0104 13.18687467177388
ONEWEB-0307             
1 49189U 21083D   25123.78124010 -.00000087  00000+0 -27228-3 0  9991
2 49189  87.8997  41.6281 0001628  87.5662 272.5653 13.13469384177180
